<?xml version="1.0" encoding="UTF-8"?>
<ndm xmlns:xsi="http://www.w3.org/2001/XMLSchema-instance" xsi:noNamespaceSchemaLocation="https://sanaregistry.org/r/ndmxml_unqualified/ndmxml-2.0.0-master-2.0.xsd">
<omm id="CCSDS_OMM_VERS" version="2.0">
<header><CREATION_DATE/><ORIGINATOR/></header><body><segment><metadata><OBJECT_NAME>ONEWEB-0120</OBJECT_NAME><OBJECT_ID>2020-100J</OBJECT_ID><CENTER_NAME>EARTH</CENTER_NAME><REF_FRAME>TEME</REF_FRAME><TIME_SYSTEM>UTC</TIME_SYSTEM><MEAN_ELEMENT_THEORY>SGP4</MEAN_ELEMENT_THEORY></metadata><data><meanElements><EPOCH>2025-02-27T02:51:18.612288</EPOCH><MEAN_MOTION>13.12444484</MEAN_MOTION><ECCENTRICITY>.0001879</ECCENTRICITY><INCLINATION>87.8807</INCLINATION><RA_OF_ASC_NODE>85.2459</RA_OF_ASC_NODE><ARG_OF_PERICENTER>88.1631</ARG_OF_PERICENTER><MEAN_ANOMALY>271.9712</MEAN_ANOMALY></meanElements><tleParameters><EPHEMERIS_TYPE>0</EPHEMERIS_TYPE><CLASSIFICATION_TYPE>U</CLASSIFICATION_TYPE><NORAD_CAT_ID>47266</NORAD_CAT_ID><ELEMENT_SET_NO>999</ELEMENT_SET_NO><REV_AT_EPOCH>20241</REV_AT_EPOCH><BSTAR>-.34422E-3</BSTAR><MEAN_MOTION_DOT>-.111E-5</MEAN_MOTION_DOT><MEAN_MOTION_DDOT>0</MEAN_MOTION_DDOT></tleParameters></data></segment></body></omm>
<omm id="CCSDS_OMM_VERS" version="2.0">
<header><CREATION_DATE/><ORIGINATOR/></header><body><segment><metadata><OBJECT_NAME>ONEWEB-0121</OBJECT_NAME><OBJECT_ID>2020-100K</OBJECT_ID><CENTER_NAME>EARTH</CENTER_NAME><REF_FRAME>TEME</REF_FRAME><TIME_SYSTEM>UTC</TIME_SYSTEM><MEAN_ELEMENT_THEORY>SGP4</MEAN_ELEMENT_THEORY></metadata><data><meanElements><EPOCH>2025-02-27T02:34:47.431488</EPOCH><MEAN_MOTION>13.12443055</MEAN_MOTION><ECCENTRICITY>.0001996</ECCENTRICITY><INCLINATION>87.8799</INCLINATION><RA_OF_ASC_NODE>85.2258</RA_OF_ASC_NODE><ARG_OF_PERICENTER>94.7639</ARG_OF_PERICENTER><MEAN_ANOMALY>265.3718</MEAN_ANOMALY></meanElements><tleParameters><EPHEMERIS_TYPE>0</EPHEMERIS_TYPE><CLASSIFICATION_TYPE>U</CLASSIFICATION_TYPE><NORAD_CAT_ID>47267</NORAD_CAT_ID><ELEMENT_SET_NO>999</ELEMENT_SET_NO><REV_AT_EPOCH>20232</REV_AT_EPOCH><BSTAR>-.84139E-3</BSTAR><MEAN_MOTION_DOT>-.29E-5</MEAN_MOTION_DOT><MEAN_MOTION_DDOT>0</MEAN_MOTION_DDOT></tleParameters></data></segment></body></omm>
<omm id="CCSDS_OMM_VERS" version="2.0">
<header><CREATION_DATE/><ORIGINATOR/></header><body><segment><metadata><OBJECT_NAME>ONEWEB-0122</OBJECT_NAME><OBJECT_ID>2020-100L</OBJECT_ID><CENTER_NAME>EARTH</CENTER_NAME><REF_FRAME>TEME</REF_FRAME><TIME_SYSTEM>UTC</TIME_SYSTEM><MEAN_ELEMENT_THEORY>SGP4</MEAN_ELEMENT_THEORY></metadata><data><meanElements><EPOCH>2025-02-27T02:27:34.361856</EPOCH><MEAN_MOTION>13.12445460</MEAN_MOTION><ECCENTRICITY>.0002031</ECCENTRICITY><INCLINATION>87.8801</INCLINATION><RA_OF_ASC_NODE>85.2320</RA_OF_ASC_NODE><ARG_OF_PERICENTER>90.6003</ARG_OF_PERICENTER><MEAN_ANOMALY>269.5359</MEAN_ANOMALY></meanElements><tleParameters><EPHEMERIS_TYPE>0</EPHEMERIS_TYPE><CLASSIFICATION_TYPE>U</CLASSIFICATION_TYPE><NORAD_CAT_ID>47268</NORAD_CAT_ID><ELEMENT_SET_NO>999</ELEMENT_SET_NO><REV_AT_EPOCH>20223</REV_AT_EPOCH><BSTAR>-.10368E-2</BSTAR><MEAN_MOTION_DOT>-.36E-5</MEAN_MOTION_DOT><MEAN_MOTION_DDOT>0</MEAN_MOTION_DDOT></tleParameters></data></segment></body></omm>
<omm id="CCSDS_OMM_VERS" version="2.0">
<header><CREATION_DATE/><ORIGINATOR/></header><body><segment><metadata><OBJECT_NAME>ONEWEB-0123</OBJECT_NAME><OBJECT_ID>2020-100M</OBJECT_ID><CENTER_NAME>EARTH</CENTER_NAME><REF_FRAME>TEME</REF_FRAME><TIME_SYSTEM>UTC</TIME_SYSTEM><MEAN_ELEMENT_THEORY>SGP4</MEAN_ELEMENT_THEORY></metadata><data><meanElements><EPOCH>2025-02-26T19:01:38.633664</EPOCH><MEAN_MOTION>13.12442368</MEAN_MOTION><ECCENTRICITY>.0001801</ECCENTRICITY><INCLINATION>87.8804</INCLINATION><RA_OF_ASC_NODE>85.3167</RA_OF_ASC_NODE><ARG_OF_PERICENTER>92.2245</ARG_OF_PERICENTER><MEAN_ANOMALY>267.9089</MEAN_ANOMALY></meanElements><tleParameters><EPHEMERIS_TYPE>0</EPHEMERIS_TYPE><CLASSIFICATION_TYPE>U</CLASSIFICATION_TYPE><NORAD_CAT_ID>47269</NORAD_CAT_ID><ELEMENT_SET_NO>999</ELEMENT_SET_NO><REV_AT_EPOCH>20233</REV_AT_EPOCH><BSTAR>-.95841E-3</BSTAR><MEAN_MOTION_DOT>-.332E-5</MEAN_MOTION_DOT><MEAN_MOTION_DDOT>0</MEAN_MOTION_DDOT></tleParameters></data></segment></body></omm>
<omm id="CCSDS_OMM_VERS" version="2.0">
<header><CREATION_DATE/><ORIGINATOR/></header><body><segment><metadata><OBJECT_NAME>ONEWEB-0124</OBJECT_NAME><OBJECT_ID>2020-100N</OBJECT_ID><CENTER_NAME>EARTH</CENTER_NAME><REF_FRAME>TEME</REF_FRAME><TIME_SYSTEM>UTC</TIME_SYSTEM><MEAN_ELEMENT_THEORY>SGP4</MEAN_ELEMENT_THEORY></metadata><data><meanElements><EPOCH>2025-02-27T02:04:25.773888</EPOCH><MEAN_MOTION>13.12441369</MEAN_MOTION><ECCENTRICITY>.0001936</ECCENTRICITY><INCLINATION>87.8805</INCLINATION><RA_OF_ASC_NODE>85.2555</RA_OF_ASC_NODE><ARG_OF_PERICENTER>99.9256</ARG_OF_PERICENTER><MEAN_ANOMALY>260.2091</MEAN_ANOMALY></meanElements><tleParameters><EPHEMERIS_TYPE>0</EPHEMERIS_TYPE><CLASSIFICATION_TYPE>U</CLASSIFICATION_TYPE><NORAD_CAT_ID>47270</NORAD_CAT_ID><ELEMENT_SET_NO>999</ELEMENT_SET_NO><REV_AT_EPOCH>20225</REV_AT_EPOCH><BSTAR>-.68563E-3</BSTAR><MEAN_MOTION_DOT>-.234E-5</MEAN_MOTION_DOT><MEAN_MOTION_DDOT>0</MEAN_MOTION_DDOT></tleParameters></data></segment></body></omm>
<omm id="CCSDS_OMM_VERS" version="2.0">
<header><CREATION_DATE/><ORIGINATOR/></header><body><segment><metadata><OBJECT_NAME>ONEWEB-0125</OBJECT_NAME><OBJECT_ID>2020-100P</OBJECT_ID><CENTER_NAME>EARTH</CENTER_NAME><REF_FRAME>TEME</REF_FRAME><TIME_SYSTEM>UTC</TIME_SYSTEM><MEAN_ELEMENT_THEORY>SGP4</MEAN_ELEMENT_THEORY></metadata><data><meanElements><EPOCH>2025-02-27T03:21:30.673440</EPOCH><MEAN_MOTION>13.12442345</MEAN_MOTION><ECCENTRICITY>.0001631</ECCENTRICITY><INCLINATION>87.8804</INCLINATION><RA_OF_ASC_NODE>85.2065</RA_OF_ASC_NODE><ARG_OF_PERICENTER>99.7759</ARG_OF_PERICENTER><MEAN_ANOMALY>260.3554</MEAN_ANOMALY></meanElements><tleParameters><EPHEMERIS_TYPE>0</EPHEMERIS_TYPE><CLASSIFICATION_TYPE>U</CLASSIFICATION_TYPE><NORAD_CAT_ID>47271</NORAD_CAT_ID><ELEMENT_SET_NO>999</ELEMENT_SET_NO><REV_AT_EPOCH>20232</REV_AT_EPOCH><BSTAR>.11154E-2</BSTAR><MEAN_MOTION_DOT>.414E-5</MEAN_MOTION_DOT><MEAN_MOTION_DDOT>0</MEAN_MOTION_DDOT></tleParameters></data></segment></body></omm>
<omm id="CCSDS_OMM_VERS" version="2.0">
<header><CREATION_DATE/><ORIGINATOR/></header><body><segment><metadata><OBJECT_NAME>ONEWEB-0126</OBJECT_NAME><OBJECT_ID>2020-100Q</OBJECT_ID><CENTER_NAME>EARTH</CENTER_NAME><REF_FRAME>TEME</REF_FRAME><TIME_SYSTEM>UTC</TIME_SYSTEM><MEAN_ELEMENT_THEORY>SGP4</MEAN_ELEMENT_THEORY></metadata><data><meanElements><EPOCH>2025-02-26T18:48:48.400992</EPOCH><MEAN_MOTION>13.12442954</MEAN_MOTION><ECCENTRICITY>.0001857</ECCENTRICITY><INCLINATION>87.8802</INCLINATION><RA_OF_ASC_NODE>85.2739</RA_OF_ASC_NODE><ARG_OF_PERICENTER>88.7022</ARG_OF_PERICENTER><MEAN_ANOMALY>271.4319</MEAN_ANOMALY></meanElements><tleParameters><EPHEMERIS_TYPE>0</EPHEMERIS_TYPE><CLASSIFICATION_TYPE>U</CLASSIFICATION_TYPE><NORAD_CAT_ID>47272</NORAD_CAT_ID><ELEMENT_SET_NO>999</ELEMENT_SET_NO><REV_AT_EPOCH>20234</REV_AT_EPOCH><BSTAR>-.6753E-3</BSTAR><MEAN_MOTION_DOT>-.23E-5</MEAN_MOTION_DOT><MEAN_MOTION_DDOT>0</MEAN_MOTION_DDOT></tleParameters></data></segment></body></omm>
<omm id="CCSDS_OMM_VERS" version="2.0">
<header><CREATION_DATE/><ORIGINATOR/></header><body><segment><metadata><OBJECT_NAME>ONEWEB-0127</OBJECT_NAME><OBJECT_ID>2020-100R</OBJECT_ID><CENTER_NAME>EARTH</CENTER_NAME><REF_FRAME>TEME</REF_FRAME><TIME_SYSTEM>UTC</TIME_SYSTEM><MEAN_ELEMENT_THEORY>SGP4</MEAN_ELEMENT_THEORY></metadata><data><meanElements><EPOCH>2025-02-26T19:43:42.180672</EPOCH><MEAN_MOTION>13.12442318</MEAN_MOTION><ECCENTRICITY>.0001935</ECCENTRICITY><INCLINATION>87.8807</INCLINATION><RA_OF_ASC_NODE>85.3034</RA_OF_ASC_NODE><ARG_OF_PERICENTER>89.5644</ARG_OF_PERICENTER><MEAN_ANOMALY>270.5707</MEAN_ANOMALY></meanElements><tleParameters><EPHEMERIS_TYPE>0</EPHEMERIS_TYPE><CLASSIFICATION_TYPE>U</CLASSIFICATION_TYPE><NORAD_CAT_ID>47273</NORAD_CAT_ID><ELEMENT_SET_NO>999</ELEMENT_SET_NO><REV_AT_EPOCH>20237</REV_AT_EPOCH><BSTAR>.13649E-2</BSTAR><MEAN_MOTION_DOT>.504E-5</MEAN_MOTION_DOT><MEAN_MOTION_DDOT>0</MEAN_MOTION_DDOT></tleParameters></data></segment></body></omm>

</ndm>
