ONEWEB-0120             
1 47266U 20100J   25058.11896542 -.00000111  00000+0 -34422-3 0  9996
2 47266  87.8807  85.2459 0001879  88.1631 271.9712 13.12444484202413
ONEWEB-0121             
1 47267U 20100K   25058.10749342 -.00000290  00000+0 -84139-3 0  9999
2 47267  87.8799  85.2258 0001996  94.7639 265.3718 13.12443055202328
ONEWEB-0122             
1 47268U 20100L   25058.10248104 -.00000360  00000+0 -10368-2 0  9990
2 47268  87.8801  85.2320 0002031  90.6003 269.5359 13.12445460202233
ONEWEB-0123             
1 47269U 20100M   25057.79280826 -.00000332  00000+0 -95841-3 0  9991
2 47269  87.8804  85.3167 0001801  92.2245 267.9089 13.12442368202334
ONEWEB-0124             
1 47270U 20100N   25058.08640942 -.00000234  00000+0 -68563-3 0  9997
2 47270  87.8805  85.2555 0001936  99.9256 260.2091 13.12441369202252
ONEWEB-0125             
1 47271U 20100P   25058.13993835  .00000414  00000+0  11154-2 0  9997
2 47271  87.8804  85.2065 0001631  99.7759 260.3554 13.12442345202324
ONEWEB-0126             
1 47272U 20100Q   25057.78389353 -.00000230  00000+0 -67530-3 0  9990
2 47272  87.8802  85.2739 0001857  88.7022 271.4319 13.12442954202342
ONEWEB-0127             
1 47273U 20100R   25057.82201598  .00000504  00000+0  13649-2 0  9993
2 47273  87.8807  85.3034 0001935  89.5644 270.5707 13.12442318202371
